FLOCK 4G-33             
1 62685U 25009CE  26204.64878073  .00006329  00000+0  24982-3 0  9997
2 62685  97.3938 284.1087 0005453 182.9801 177.1406 15.25872431 84369
FLOCK 4H-1              
1 66704U 25276AQ  26204.17276657  .00005712  00000+0  26128-3 0  9996
2 66704  97.4163 277.2951 0002730 153.3838 206.7538 15.20918865 35904
FLOCK 4H-2              
1 66705U 25276AR  26204.67126868  .00007145  00000+0  32327-3 0  9990
2 66705  97.4158 277.8372 0002140 143.2893 216.8489 15.21206769 35985
FLOCK 4H-3              
1 66706U 25276AS  26204.20548145  .00006525  00000+0  30324-3 0  9992
2 66706  97.4225 277.2996 0003158 210.0818 150.0237 15.20314963 35892
FLOCK 4H-4              
1 66707U 25276AT  26204.17681395  .00006578  00000+0  30751-3 0  9996
2 66707  97.4210 277.1347 0003736 216.3143 143.7839 15.20109036 35887
FLOCK 4H-5              
1 66708U 25276AU  26204.23054991  .00006242  00000+0  28480-3 0  9994
2 66708  97.4162 277.3738 0001825 133.0866 227.0523 15.20972197 35910
FLOCK 4H-6              
1 66709U 25276AV  26204.67290226  .00007164  00000+0  32907-3 0  9999
2 66709  97.4211 277.8544 0003388 175.8000 184.3265 15.20686166 35978
FLOCK 4H-7              
1 66710U 25276AW  26204.85336991  .00006469  00000+0  29942-3 0  9993
2 66710  97.4171 277.7819 0001092 212.6455 147.4713 15.20463548 35990
FLOCK 4H-8              
1 66711U 25276AX  26204.18557784  .00006551  00000+0  30229-3 0  9997
2 66711  97.4210 277.2802 0002323 223.0459 137.0595 15.20562498 35896
FLOCK 4H-9              
1 66712U 25276AY  26204.46097475  .00006951  00000+0  31768-3 0  9998
2 66712  97.4199 277.6484 0003254 182.0123 178.1100 15.20871399 35946
FLOCK 4H-10             
1 66713U 25276AZ  26204.16022130  .00006835  00000+0  31821-3 0  9993
2 66713  97.4177 277.0518 0003531 216.3555 143.7441 15.20235394 35881
FLOCK 4H-11             
1 66714U 25276BA  26204.16858454  .00015513  00000+0  65241-3 0  9996
2 66714  97.4181 277.6923 0002221 206.4692 153.6432 15.23487777 35922
FLOCK 4H-12             
1 66715U 25276BB  26204.44787784  .00006863  00000+0  31343-3 0  9999
2 66715  97.4173 277.5693 0002692 159.9094 200.2248 15.20898171 36259
FLOCK 4H-13             
1 66716U 25276BC  26204.15479634  .00006168  00000+0  28133-3 0  9991
2 66716  97.4207 277.4587 0002441 133.8786 226.2651 15.20985621 35904
FLOCK 4H-14             
1 66717U 25276BD  26204.63905670  .00006528  00000+0  29359-3 0  9990
2 66717  97.4190 277.9861 0002307 130.5318 229.6119 15.21446067 35231
FLOCK 4H-15             
1 66718U 25276BE  26204.65648832  .00006395  00000+0  30033-3 0  9990
2 66718  97.4203 277.5446 0003083 229.8520 130.2445 15.19962578 35956
