{"fetched_at":"2026-07-24T07:06:09.639Z","source":"https://celestrak.org/NORAD/elements/gp.php?GROUP=planet&FORMAT=JSON","constellation":"superdove","records":[{"OBJECT_NAME":"FLOCK 4G-33","OBJECT_ID":"2025-009CE","EPOCH":"2026-07-23T15:34:14.655072","CLASSIFICATION_TYPE":"U","MEAN_MOTION":15.25872431,"ECCENTRICITY":0.0005453,"INCLINATION":97.3938,"RA_OF_ASC_NODE":284.1087,"ARG_OF_PERICENTER":182.9801,"MEAN_ANOMALY":177.1406,"EPHEMERIS_TYPE":0,"NORAD_CAT_ID":62685,"ELEMENT_SET_NO":999,"REV_AT_EPOCH":8436,"BSTAR":0.00024982,"MEAN_MOTION_DOT":0.00006329,"MEAN_MOTION_DDOT":0},{"OBJECT_NAME":"FLOCK 4H-1","OBJECT_ID":"2025-276AQ","EPOCH":"2026-07-23T04:08:47.031648","CLASSIFICATION_TYPE":"U","MEAN_MOTION":15.20918865,"ECCENTRICITY":0.000273,"INCLINATION":97.4163,"RA_OF_ASC_NODE":277.2951,"ARG_OF_PERICENTER":153.3838,"MEAN_ANOMALY":206.7538,"EPHEMERIS_TYPE":0,"NORAD_CAT_ID":66704,"ELEMENT_SET_NO":999,"REV_AT_EPOCH":3590,"BSTAR":0.00026128,"MEAN_MOTION_DOT":0.00005712,"MEAN_MOTION_DDOT":0},{"OBJECT_NAME":"FLOCK 4H-2","OBJECT_ID":"2025-276AR","EPOCH":"2026-07-23T16:06:37.613952","CLASSIFICATION_TYPE":"U","MEAN_MOTION":15.21206769,"ECCENTRICITY":0.000214,"INCLINATION":97.4158,"RA_OF_ASC_NODE":277.8372,"ARG_OF_PERICENTER":143.2893,"MEAN_ANOMALY":216.8489,"EPHEMERIS_TYPE":0,"NORAD_CAT_ID":66705,"ELEMENT_SET_NO":999,"REV_AT_EPOCH":3598,"BSTAR":0.00032327,"MEAN_MOTION_DOT":0.00007145,"MEAN_MOTION_DDOT":0},{"OBJECT_NAME":"FLOCK 4H-3","OBJECT_ID":"2025-276AS","EPOCH":"2026-07-23T04:55:53.597280","CLASSIFICATION_TYPE":"U","MEAN_MOTION":15.20314963,"ECCENTRICITY":0.0003158,"INCLINATION":97.4225,"RA_OF_ASC_NODE":277.2996,"ARG_OF_PERICENTER":210.0818,"MEAN_ANOMALY":150.0237,"EPHEMERIS_TYPE":0,"NORAD_CAT_ID":66706,"ELEMENT_SET_NO":999,"REV_AT_EPOCH":3589,"BSTAR":0.00030324,"MEAN_MOTION_DOT":0.00006525,"MEAN_MOTION_DDOT":0},{"OBJECT_NAME":"FLOCK 4H-4","OBJECT_ID":"2025-276AT","EPOCH":"2026-07-23T04:14:36.725280","CLASSIFICATION_TYPE":"U","MEAN_MOTION":15.20109036,"ECCENTRICITY":0.0003736,"INCLINATION":97.421,"RA_OF_ASC_NODE":277.1347,"ARG_OF_PERICENTER":216.3143,"MEAN_ANOMALY":143.7839,"EPHEMERIS_TYPE":0,"NORAD_CAT_ID":66707,"ELEMENT_SET_NO":999,"REV_AT_EPOCH":3588,"BSTAR":0.00030751,"MEAN_MOTION_DOT":0.00006578,"MEAN_MOTION_DDOT":0},{"OBJECT_NAME":"FLOCK 4H-5","OBJECT_ID":"2025-276AU","EPOCH":"2026-07-23T05:31:59.512224","CLASSIFICATION_TYPE":"U","MEAN_MOTION":15.20972197,"ECCENTRICITY":0.0001825,"INCLINATION":97.4162,"RA_OF_ASC_NODE":277.3738,"ARG_OF_PERICENTER":133.0866,"MEAN_ANOMALY":227.0523,"EPHEMERIS_TYPE":0,"NORAD_CAT_ID":66708,"ELEMENT_SET_NO":999,"REV_AT_EPOCH":3591,"BSTAR":0.0002848,"MEAN_MOTION_DOT":0.00006242,"MEAN_MOTION_DDOT":0},{"OBJECT_NAME":"FLOCK 4H-6","OBJECT_ID":"2025-276AV","EPOCH":"2026-07-23T16:08:58.755264","CLASSIFICATION_TYPE":"U","MEAN_MOTION":15.20686166,"ECCENTRICITY":0.0003388,"INCLINATION":97.4211,"RA_OF_ASC_NODE":277.8544,"ARG_OF_PERICENTER":175.8,"MEAN_ANOMALY":184.3265,"EPHEMERIS_TYPE":0,"NORAD_CAT_ID":66709,"ELEMENT_SET_NO":999,"REV_AT_EPOCH":3597,"BSTAR":0.00032907,"MEAN_MOTION_DOT":0.00007164,"MEAN_MOTION_DDOT":0},{"OBJECT_NAME":"FLOCK 4H-7","OBJECT_ID":"2025-276AW","EPOCH":"2026-07-23T20:28:51.160224","CLASSIFICATION_TYPE":"U","MEAN_MOTION":15.20463548,"ECCENTRICITY":0.0001092,"INCLINATION":97.4171,"RA_OF_ASC_NODE":277.7819,"ARG_OF_PERICENTER":212.6455,"MEAN_ANOMALY":147.4713,"EPHEMERIS_TYPE":0,"NORAD_CAT_ID":66710,"ELEMENT_SET_NO":999,"REV_AT_EPOCH":3599,"BSTAR":0.00029942,"MEAN_MOTION_DOT":0.00006469,"MEAN_MOTION_DDOT":0},{"OBJECT_NAME":"FLOCK 4H-8","OBJECT_ID":"2025-276AX","EPOCH":"2026-07-23T04:27:13.925376","CLASSIFICATION_TYPE":"U","MEAN_MOTION":15.20562498,"ECCENTRICITY":0.0002323,"INCLINATION":97.421,"RA_OF_ASC_NODE":277.2802,"ARG_OF_PERICENTER":223.0459,"MEAN_ANOMALY":137.0595,"EPHEMERIS_TYPE":0,"NORAD_CAT_ID":66711,"ELEMENT_SET_NO":999,"REV_AT_EPOCH":3589,"BSTAR":0.00030229,"MEAN_MOTION_DOT":0.00006551,"MEAN_MOTION_DDOT":0},{"OBJECT_NAME":"FLOCK 4H-9","OBJECT_ID":"2025-276AY","EPOCH":"2026-07-23T11:03:48.218400","CLASSIFICATION_TYPE":"U","MEAN_MOTION":15.20871399,"ECCENTRICITY":0.0003254,"INCLINATION":97.4199,"RA_OF_ASC_NODE":277.6484,"ARG_OF_PERICENTER":182.0123,"MEAN_ANOMALY":178.11,"EPHEMERIS_TYPE":0,"NORAD_CAT_ID":66712,"ELEMENT_SET_NO":999,"REV_AT_EPOCH":3594,"BSTAR":0.00031768,"MEAN_MOTION_DOT":0.00006951,"MEAN_MOTION_DDOT":0},{"OBJECT_NAME":"FLOCK 4H-10","OBJECT_ID":"2025-276AZ","EPOCH":"2026-07-23T03:50:43.120320","CLASSIFICATION_TYPE":"U","MEAN_MOTION":15.20235394,"ECCENTRICITY":0.00035317,"INCLINATION":97.4177,"RA_OF_ASC_NODE":277.0518,"ARG_OF_PERICENTER":216.3555,"MEAN_ANOMALY":143.7441,"EPHEMERIS_TYPE":0,"NORAD_CAT_ID":66713,"ELEMENT_SET_NO":999,"REV_AT_EPOCH":3588,"BSTAR":0.00031820653,"MEAN_MOTION_DOT":0.00006835,"MEAN_MOTION_DDOT":0},{"OBJECT_NAME":"FLOCK 4H-11","OBJECT_ID":"2025-276BA","EPOCH":"2026-07-23T04:02:45.704256","CLASSIFICATION_TYPE":"U","MEAN_MOTION":15.23487777,"ECCENTRICITY":0.00022212,"INCLINATION":97.4181,"RA_OF_ASC_NODE":277.6923,"ARG_OF_PERICENTER":206.4692,"MEAN_ANOMALY":153.6432,"EPHEMERIS_TYPE":0,"NORAD_CAT_ID":66714,"ELEMENT_SET_NO":999,"REV_AT_EPOCH":3592,"BSTAR":0.00065241098,"MEAN_MOTION_DOT":0.00015513,"MEAN_MOTION_DDOT":0},{"OBJECT_NAME":"FLOCK 4H-12","OBJECT_ID":"2025-276BB","EPOCH":"2026-07-23T10:44:56.645376","CLASSIFICATION_TYPE":"U","MEAN_MOTION":15.20898171,"ECCENTRICITY":0.0002692,"INCLINATION":97.4173,"RA_OF_ASC_NODE":277.5693,"ARG_OF_PERICENTER":159.9094,"MEAN_ANOMALY":200.2248,"EPHEMERIS_TYPE":0,"NORAD_CAT_ID":66715,"ELEMENT_SET_NO":999,"REV_AT_EPOCH":3625,"BSTAR":0.00031343,"MEAN_MOTION_DOT":0.00006863,"MEAN_MOTION_DDOT":0},{"OBJECT_NAME":"FLOCK 4H-13","OBJECT_ID":"2025-276BC","EPOCH":"2026-07-23T03:42:54.403776","CLASSIFICATION_TYPE":"U","MEAN_MOTION":15.20985621,"ECCENTRICITY":0.0002441,"INCLINATION":97.4207,"RA_OF_ASC_NODE":277.4587,"ARG_OF_PERICENTER":133.8786,"MEAN_ANOMALY":226.2651,"EPHEMERIS_TYPE":0,"NORAD_CAT_ID":66716,"ELEMENT_SET_NO":999,"REV_AT_EPOCH":3590,"BSTAR":0.00028133,"MEAN_MOTION_DOT":0.00006168,"MEAN_MOTION_DDOT":0},{"OBJECT_NAME":"FLOCK 4H-14","OBJECT_ID":"2025-276BD","EPOCH":"2026-07-23T15:20:14.498880","CLASSIFICATION_TYPE":"U","MEAN_MOTION":15.21446067,"ECCENTRICITY":0.0002307,"INCLINATION":97.419,"RA_OF_ASC_NODE":277.9861,"ARG_OF_PERICENTER":130.5318,"MEAN_ANOMALY":229.6119,"EPHEMERIS_TYPE":0,"NORAD_CAT_ID":66717,"ELEMENT_SET_NO":999,"REV_AT_EPOCH":3523,"BSTAR":0.00029359,"MEAN_MOTION_DOT":0.00006528,"MEAN_MOTION_DDOT":0},{"OBJECT_NAME":"FLOCK 4H-15","OBJECT_ID":"2025-276BE","EPOCH":"2026-07-23T15:45:20.590848","CLASSIFICATION_TYPE":"U","MEAN_MOTION":15.19962578,"ECCENTRICITY":0.0003083,"INCLINATION":97.4203,"RA_OF_ASC_NODE":277.5446,"ARG_OF_PERICENTER":229.852,"MEAN_ANOMALY":130.2445,"EPHEMERIS_TYPE":0,"NORAD_CAT_ID":66718,"ELEMENT_SET_NO":999,"REV_AT_EPOCH":3595,"BSTAR":0.00030033,"MEAN_MOTION_DOT":0.00006395,"MEAN_MOTION_DDOT":0}]}
